[{"OBJECT_NAME":"STARLINK-5199","OBJECT_ID":"2022-141AW","EPOCH":"2026-03-09T22:14:32.743104","MEAN_MOTION":15.08829562,"ECCENTRICITY":0.00011742,"INCLINATION":53.2199,"RA_OF_ASC_NODE":353.0519,"ARG_OF_PERICENTER":104.6511,"MEAN_ANOMALY":255.4612,"EPHEMERIS_TYPE":0,"CLASSIFICATION_TYPE":"U","NORAD_CAT_ID":54201,"ELEMENT_SET_NO":999,"REV_AT_EPOCH":18603,"BSTAR":-0.00021033102,"MEAN_MOTION_DOT":-3.633e-5,"MEAN_MOTION_DDOT":0},{"OBJECT_NAME":"OBJECT G","OBJECT_ID":"2025-292G","EPOCH":"2026-03-09T22:41:34.708704","MEAN_MOTION":15.05879657,"ECCENTRICITY":0.00150455,"INCLINATION":97.6425,"RA_OF_ASC_NODE":145.7524,"ARG_OF_PERICENTER":352.95,"MEAN_ANOMALY":7.1513,"EPHEMERIS_TYPE":0,"CLASSIFICATION_TYPE":"U","NORAD_CAT_ID":66999,"ELEMENT_SET_NO":999,"REV_AT_EPOCH":1351,"BSTAR":0.00047153864,"MEAN_MOTION_DOT":6.807e-5,"MEAN_MOTION_DDOT":0}]
